STARLINK-31289          
1 59173U 24044X   26068.81036351  .00000117  00000+0  13801-4 0  9993
2 59173  43.0075 106.3738 0003214 275.0621  84.9864 15.27560668113614
FLOCK 4G-25             
1 62646U 25009AP  26068.74572546  .00010373  00000+0  38902-3 0  9990
2 62646  97.4049 151.4141 0000828 316.3151  43.8023 15.27424196 63734
